HAWK-6B                 
1 55324U 23011A   26164.96983389  .00005376  00000+0  23250-3 0  9995
2 55324  40.4994  10.8375 0002926 341.5085  18.5617 15.22907751187351
HAWK-6C                 
1 55326U 23011C   26164.83801009  .00004453  00000+0  19405-3 0  9993
2 55326  40.4992   8.4442 0003600 329.4805  30.5794 15.22903526187349
HAWK-6A                 
1 55327U 23011D   26164.83806553  .00004997  00000+0  21674-3 0  9997
2 55327  40.4994  10.0690 0003404 328.2172  31.8431 15.22903337187344
HAWK-7A                 
1 56191U 23054P   26165.42424803  .00005633  00000+0  21308-3 0  9996
2 56191  97.2709  52.8321 0004493  63.7236 296.4465 15.27335217176608
HAWK-7B                 
1 56193U 23054R   26165.22761218  .00004325  00000+0  16426-3 0  9992
2 56193  97.2735  50.9042 0003921  77.7736 282.3942 15.27329252176575
HAWK-7C                 
1 56200U 23054Y   26165.48956792  .00005616  00000+0  21244-3 0  9990
2 56200  97.2712  51.9286 0003847  65.9299 294.2343 15.27335872176617
